NORAD_CAT_ID,OBJECT_NAME,OBJECT_TYPE,EPOCH,MEAN_MOTION,ECCENTRICITY,INCLINATION,RA_OF_ASC_NODE,ARG_OF_PERICENTER,MEAN_ANOMALY,BSTAR,MEAN_MOTION_DOT,MEAN_MOTION_DDOT,TLE_LINE0,TLE_LINE1,TLE_LINE2,SEMIMAJOR_AXIS,PERIOD,APOGEE,PERIGEE,DECAYED
50844.0,STARLINK-3326,PAYLOAD,2024-06-23 05:16:35,15.08834802,0.0001649,53.2181,102.4703,107.0342,253.0831,-2.7577e-05,-7.27e-06,0.0,0 STARLINK-3326,1 50844U 22001AT  24175.21985408 -.00000727  00000-0 -27577-4 0  9992,2 50844  53.2181 102.4703 0001649 107.0342 253.0831 15.08834802135995,6917.896,95.438,540.902,538.621,0.0
50844.0,STARLINK-3326,PAYLOAD,2024-06-23 22:45:49,15.08842648,0.000162,53.218,99.1998,106.6495,253.4675,6.1237e-05,6.87e-06,0.0,0 STARLINK-3326,1 50844U 22001AT  24175.94848690  .00000687  00000-0  61237-4 0  9997,2 50844  53.2180  99.1998 0001620 106.6495 253.4675 15.08842648136106,6917.872,95.437,540.858,538.617,0.0
50844.0,STARLINK-3326,PAYLOAD,2024-06-24 05:07:21,15.08846838,0.0001678,53.2182,98.0097,108.6567,251.4607,9.9329e-05,1.293e-05,0.0,0 STARLINK-3326,1 50844U 22001AT  24176.21344234  .00001293  00000-0  99329-4 0  9990,2 50844  53.2182  98.0097 0001678 108.6567 251.4607 15.08846838137425,6917.859,95.437,540.885,538.564,0.0
50844.0,STARLINK-3326,PAYLOAD,2024-06-24 22:36:36,15.08834644,0.0001883,53.2174,94.7323,120.2989,239.819,4.6324e-06,-2.14e-06,0.0,0 STARLINK-3326,1 50844U 22001AT  24176.94209436 -.00000214  00000-0  46324-5 0  9995,2 50844  53.2174  94.7323 0001883 120.2989 239.8190 15.08834644136256,6917.897,95.438,541.064,538.459,0.0
50844.0,STARLINK-3326,PAYLOAD,2024-06-25 01:47:23,15.08832395,0.0001343,53.2173,94.1364,89.7489,270.3657,-1.0098e-05,-4.49e-06,0.0,0 STARLINK-3326,1 50844U 22001AT  24177.07457807 -.00000449  00000-0 -10098-4 0  9996,2 50844  53.2173  94.1364 0001343  89.7489 270.3657 15.08832395137552,6917.904,95.438,540.698,538.84,0.0
50844.0,STARLINK-3326,PAYLOAD,2024-06-25 22:27:23,15.08845803,0.0001362,53.2173,90.2753,90.3218,269.793,-9.9064e-07,-3.04e-06,0.0,0 STARLINK-3326,1 50844U 22001AT  24177.93569198 -.00000304  00000-0 -99064-6 0  9990,2 50844  53.2173  90.2753 0001362  90.3218 269.7930 15.08845803136407,6917.863,95.437,540.67,538.785,0.0
50844.0,STARLINK-3326,PAYLOAD,2024-06-26 01:38:09,15.08852046,0.0001443,53.2172,89.6835,88.8069,271.3088,6.0584e-05,6.77e-06,0.0,0 STARLINK-3326,1 50844U 22001AT  24178.06816619  .00000677  00000-0  60584-4 0  9992,2 50844  53.2172  89.6835 0001443  88.8069 271.3088 15.08852046137709,6917.844,95.437,540.707,538.71,0.0
50844.0,STARLINK-3326,PAYLOAD,2024-06-27 01:28:57,15.0883961,0.0001153,53.2167,85.2208,97.873,262.2393,3.738e-05,3.07e-06,0.0,0 STARLINK-3326,1 50844U 22001AT  24179.06177401  .00000307  00000-0  37380-4 0  9990,2 50844  53.2167  85.2208 0001153  97.8730 262.2393 15.08839610137858,6917.882,95.438,540.544,538.949,0.0
50844.0,STARLINK-3326,PAYLOAD,2024-06-27 22:08:58,15.0884406,0.0001063,53.2166,81.3575,91.4605,268.6509,-0.0001055,-1.967e-05,0.0,0 STARLINK-3326,1 50844U 22001AT  24179.92289887 -.00001967  00000-0 -10550-3 0  9991,2 50844  53.2166  81.3575 0001063  91.4605 268.6509 15.08844060136709,6917.868,95.437,540.468,538.998,0.0
50844.0,STARLINK-3326,PAYLOAD,2024-06-28 10:52:02,15.08850874,0.0001352,53.2166,78.981,93.0327,267.082,-1.5785e-05,-5.39e-06,0.0,0 STARLINK-3326,1 50844U 22001AT  24180.45280928 -.00000539  00000-0 -15785-4 0  9998,2 50844  53.2166  78.9810 0001352  93.0327 267.0820 15.08850874138063,6917.847,95.437,540.647,538.777,0.0
50844.0,STARLINK-3326,PAYLOAD,2024-06-28 21:59:44,15.08852203,0.000127,53.2168,76.8995,93.0809,267.0329,0.00017949,2.571e-05,0.0,0 STARLINK-3326,1 50844U 22001AT  24180.91648227  .00002571  00000-0  17949-3 0  9998,2 50844  53.2168  76.8995 0001270  93.0809 267.0329 15.08852203136857,6917.843,95.437,540.587,538.83,0.0
50844.0,STARLINK-3326,PAYLOAD,2024-06-28 23:35:06,15.08856796,0.0001494,53.217,76.601,97.4231,262.6931,0.00022515,3.299e-05,0.0,0 STARLINK-3326,1 50844U 22001AT  24180.98271867  .00003299  00000-0  22515-3 0  9990,2 50844  53.2170  76.6010 0001494  97.4231 262.6931 15.08856796138146,6917.829,95.436,540.728,538.661,0.0
50844.0,STARLINK-3326,PAYLOAD,2024-06-29 20:15:10,15.08826991,0.0001156,53.2168,72.7348,88.9074,271.2051,-9.6714e-06,-4.42e-06,0.0,0 STARLINK-3326,1 50844U 22001AT  24181.84386743 -.00000442  00000-0 -96714-5 0  9999,2 50844  53.2168  72.7348 0001156  88.9074 271.2051 15.08826991138276,6917.92,95.438,540.585,538.985,0.0
50844.0,STARLINK-3326,PAYLOAD,2024-06-29 21:50:33,15.08826495,0.0001178,53.2168,72.4377,86.0628,274.0499,-9.6327e-06,-4.41e-06,0.0,0 STARLINK-3326,1 50844U 22001AT  24181.91010875 -.00000441  00000-0 -96327-5 0  9996,2 50844  53.2168  72.4377 0001178  86.0628 274.0499 15.08826495137009,6917.922,95.438,540.602,538.972,0.0
50844.0,STARLINK-3326,PAYLOAD,2024-06-30 02:36:42,15.08827046,0.0001237,53.2156,71.5464,101.7734,258.3397,-0.00016357,-2.889e-05,0.0,0 STARLINK-3326,1 50844U 22001AT  24182.10882490 -.00002889  00000-0 -16357-3 0  9999,2 50844  53.2156  71.5464 0001237 101.7734 258.3397 15.08827046137030,6917.92,95.438,540.641,538.929,0.0
50844.0,STARLINK-3326,PAYLOAD,2024-06-30 21:41:19,15.08846493,0.0001351,53.2165,67.9787,103.5575,256.5568,9.3893e-05,1.207e-05,0.0,0 STARLINK-3326,1 50844U 22001AT  24182.90369708  .00001207  00000-0  93893-4 0  9991,2 50844  53.2165  67.9787 0001351 103.5575 256.5568 15.08846493138439,6917.861,95.437,540.66,538.791,0.0
50844.0,STARLINK-3326,PAYLOAD,2024-07-01 15:10:34,15.08843106,0.0002013,53.2164,64.7087,87.0355,273.0867,0.00040543,6.171e-05,0.0,0 STARLINK-3326,1 50844U 22001AT  24183.63234468  .00006171  00000-0  40543-3 0  9994,2 50844  53.2164  64.7087 0002013  87.0355 273.0867 15.08843106137268,6917.871,95.437,541.128,538.343,0.0
50844.0,STARLINK-3326,PAYLOAD,2024-07-01 21:32:07,15.08838105,0.0001482,53.2181,63.5217,108.4514,251.664,0.00010932,1.452e-05,0.0,0 STARLINK-3326,1 50844U 22001AT  24183.89730398  .00001452  00000-0  10932-3 0  9991,2 50844  53.2181  63.5217 0001482 108.4514 251.6640 15.08838105138583,6917.886,95.438,540.776,538.726,0.0
50844.0,STARLINK-3326,PAYLOAD,2024-07-01 23:07:30,15.08844867,0.0001561,53.2181,63.2252,109.218,250.8982,0.00014773,2.064e-05,0.0,0 STARLINK-3326,1 50844U 22001AT  24183.96354575  .00002064  00000-0  14773-3 0  9995,2 50844  53.2181  63.2252 0001561 109.2180 250.8982 15.08844867137317,6917.866,95.437,540.81,538.651,0.0
50844.0,STARLINK-3326,PAYLOAD,2024-07-02 15:01:21,15.08839685,0.0001274,53.2175,60.2524,103.7455,256.3679,6.6572e-05,7.72e-06,0.0,0 STARLINK-3326,1 50844U 22001AT  24184.62594361  .00000772  00000-0  66572-4 0  9997,2 50844  53.2175  60.2524 0001274 103.7455 256.3679 15.08839685137411,6917.881,95.438,540.628,538.865,0.0
50844.0,STARLINK-3326,PAYLOAD,2024-07-02 21:22:54,15.08835861,0.0001312,53.2175,59.0615,101.4774,258.6365,-8.3684e-05,-1.619e-05,0.0,0 STARLINK-3326,1 50844U 22001AT  24184.89090652 -.00001619  00000-0 -83684-4 0  9996,2 50844  53.2175  59.0615 0001312 101.4774 258.6365 15.08835861137453,6917.893,95.438,540.666,538.85,0.0
50844.0,STARLINK-3326,PAYLOAD,2024-07-03 00:33:40,15.08840587,0.0001312,53.2177,58.4645,84.5167,275.5975,4.23e-05,3.85e-06,0.0,0 STARLINK-3326,1 50844U 22001AT  24185.02338508  .00000385  00000-0  42300-4 0  9994,2 50844  53.2177  58.4645 0001312  84.5167 275.5975 15.08840587138758,6917.879,95.438,540.651,538.836,0.0
50844.0,STARLINK-3326,PAYLOAD,2024-07-03 21:13:41,15.08841068,0.0001192,53.2163,54.5962,72.9681,287.1441,9.0075e-05,1.146e-05,0.0,0 STARLINK-3326,1 50844U 22001AT  24185.88450755  .00001146  00000-0  90075-4 0  9995,2 50844  53.2163  54.5962 0001192  72.9681 287.1441 15.08841068137605,6917.877,95.437,540.567,538.918,0.0
50844.0,STARLINK-3326,PAYLOAD,2024-07-04 08:21:23,15.08836582,0.0001426,53.2158,52.5148,74.8835,285.2315,4.9866e-05,5.06e-06,0.0,0 STARLINK-3326,1 50844U 22001AT  24186.34819109  .00000506  00000-0  49866-4 0  9990,2 50844  53.2158  52.5148 0001426  74.8835 285.2315 15.08836582138958,6917.891,95.438,540.742,538.769,0.0
50844.0,STARLINK-3326,PAYLOAD,2024-07-04 14:42:56,15.08836541,0.000165,53.2154,51.327,76.0203,284.0972,0.00011396,1.526e-05,0.0,0 STARLINK-3326,1 50844U 22001AT  24186.61315288  .00001526  00000-0  11396-3 0  9998,2 50844  53.2154  51.3270 0001650  76.0203 284.0972 15.08836541137713,6917.891,95.438,540.897,538.615,0.0
50844.0,STARLINK-3326,PAYLOAD,2024-07-04 22:39:51,15.0884327,0.0001178,53.2163,49.8411,70.2054,289.9065,0.00016336,2.313e-05,0.0,0 STARLINK-3326,1 50844U 22001AT  24186.94434838  .00002313  00000-0  16336-3 0  9991,2 50844  53.2163  49.8411 0001178  70.2054 289.9065 15.08843270137766,6917.87,95.437,540.55,538.92,0.0
50844.0,STARLINK-3326,PAYLOAD,2024-07-05 00:15:14,15.08846134,0.000118,53.2161,49.5433,70.5323,289.5796,0.00023778,3.499e-05,0.0,0 STARLINK-3326,1 50844U 22001AT  24187.01058691  .00003499  00000-0  23778-3 0  9993,2 50844  53.2161  49.5433 0001180  70.5323 289.5796 15.08846134139053,6917.862,95.437,540.543,538.91,0.0
50844.0,STARLINK-3326,PAYLOAD,2024-07-05 08:12:10,15.08846961,0.0001141,53.2161,48.0587,75.654,284.4579,0.00024301,3.582e-05,0.0,0 STARLINK-3326,1 50844U 22001AT  24187.34178785  .00003582  00000-0  24301-3 0  9992,2 50844  53.2161  48.0587 0001141  75.6540 284.4579 15.08846961137825,6917.859,95.437,540.513,538.935,0.0
50844.0,STARLINK-3326,PAYLOAD,2024-07-05 20:55:15,15.08851532,0.0001207,53.2154,45.675,87.7562,272.3569,0.00029607,4.429e-05,0.0,0 STARLINK-3326,1 50844U 22001AT  24187.87170466  .00004429  00000-0  29607-3 0  9993,2 50844  53.2154  45.6750 0001207  87.7562 272.3569 15.08851532137907,6917.845,95.437,540.545,538.875,0.0
50844.0,STARLINK-3326,PAYLOAD,2024-07-06 08:02:57,15.08841921,0.0001306,53.2166,43.596,92.1887,267.9255,6.6888e-05,7.77e-06,0.0,0 STARLINK-3326,1 50844U 22001AT  24188.33538758  .00000777  00000-0  66888-4 0  9992,2 50844  53.2166  43.5960 0001306  92.1887 267.9255 15.08841921139253,6917.875,95.437,540.643,538.836,0.0
